{"type": "FeatureCollection", "features": [ {"type": "Feature", "properties": {"norad_id": 34976, "name": "COSMOS 2251 DEB", "group": "cosmos-2251-debris", "lat": -8.862445788529277, "lon": -48.787450525433854, "alt_km": 611.312784585416, "timestamp": "2025-12-08T21:31:05.062156+00:00", "meta": {"OBJECT_NAME": "COSMOS 2251 DEB", "OBJECT_ID": "1993-036AFF", "EPOCH": "2025-12-08T09:14:02.114016", "MEAN_MOTION": 14.76413994, "ECCENTRICITY": 0.00478661, "INCLINATION": 74.058, "RA_OF_ASC_NODE": 314.7678, "ARG_OF_PERICENTER": 2.4663, "MEAN_ANOMALY": 149.1802, "EPHEMERIS_TYPE": 0, "CLASSIFICATION_TYPE": "U", "NORAD_CAT_ID": 34976, "ELEMENT_SET_NO": 999, "REV_AT_EPOCH": 88209, "BSTAR": 0.0019665447, "MEAN_MOTION_DOT": 0.00013928, "MEAN_MOTION_DDOT": 0}, "tle": {"line1": "1 34976U 93036AFF 25342.38474669  .00013928  00000+0  19665-2 0  9994", "line2": "2 34976  74.0580 314.7678 0047866   2.4663 149.1802 14.76413994882093"}}, "geometry": {"type": "Point", "coordinates": [-48.787450525433854, -8.862445788529277]}}, {"type": "Feature", "properties": {"norad_id": 34979, "name": "COSMOS 2251 DEB", "group": "cosmos-2251-debris", "lat": 0.7111339536377372, "lon": -84.9726579573376, "alt_km": 600.1744586690975, "timestamp": "2025-12-08T21:31:05.062166+00:00", "meta": {"OBJECT_NAME": "COSMOS 2251 DEB", "OBJECT_ID": "1993-036AFJ", "EPOCH": "2025-12-08T05:16:59.707200", "MEAN_MOTION": 14.79208355, "ECCENTRICITY": 0.00491294, "INCLINATION": 74.0404, "RA_OF_ASC_NODE": 276.1537, "ARG_OF_PERICENTER": 355.0418, "MEAN_ANOMALY": 5.0264, "EPHEMERIS_TYPE": 0, "CLASSIFICATION_TYPE": "U", "NORAD_CAT_ID": 34979, "ELEMENT_SET_NO": 999, "REV_AT_EPOCH": 88153, "BSTAR": 0.0018325287, "MEAN_MOTION_DOT": 0.0001388, "MEAN_MOTION_DDOT": 0}, "tle": {"line1": "1 34979U 93036AFJ 25342.22013550  .00013880  00000+0  18325-2 0  9997", "line2": "2 34979  74.0404 276.1537 0049129 355.0418   5.0264 14.79208355881531"}}, "geometry": {"type": "Point", "coordinates": [-84.9726579573376, 0.7111339536377372]}}, {"type": "Feature", "properties": {"norad_id": 34990, "name": "COSMOS 2251 DEB", "group": "cosmos-2251-debris", "lat": -68.289516837127, "lon": 124.38918767605777, "alt_km": 752.9026601635114, "timestamp": "2025-12-08T21:31:05.062176+00:00", "meta": {"OBJECT_NAME": "COSMOS 2251 DEB", "OBJECT_ID": "1993-036AFN", "EPOCH": "2025-12-07T01:03:28.213920", "MEAN_MOTION": 14.42350123, "ECCENTRICITY": 0.00162731, "INCLINATION": 74.0455, "RA_OF_ASC_NODE": 261.8923, "ARG_OF_PERICENTER": 325.0179, "MEAN_ANOMALY": 34.9906, "EPHEMERIS_TYPE": 0, "CLASSIFICATION_TYPE": "U", "NORAD_CAT_ID": 34990, "ELEMENT_SET_NO": 999, "REV_AT_EPOCH": 87264, "BSTAR": 0.00072596004, "MEAN_MOTION_DOT": 2.377e-05, "MEAN_MOTION_DDOT": 0}, "tle": {"line1": "1 34990U 93036AFN 25341.04407655  .00002377  00000+0  72596-3 0  9992", "line2": "2 34990  74.0455 261.8923 0016273 325.0179  34.9906 14.42350123872642"}}, "geometry": {"type": "Point", "coordinates": [124.38918767605777, -68.289516837127]}}, {"type": "Feature", "properties": {"norad_id": 34997, "name": "COSMOS 2251 DEB", "group": "cosmos-2251-debris", "lat": 17.369316023834493, "lon": -36.377829786912265, "alt_km": 732.774608052262, "timestamp": "2025-12-08T21:31:05.062186+00:00", "meta": {"OBJECT_NAME": "COSMOS 2251 DEB", "OBJECT_ID": "1993-036AFV", "EPOCH": "2025-12-07T05:34:12.850752", "MEAN_MOTION": 14.45441909, "ECCENTRICITY": 0.00980928, "INCLINATION": 73.8797, "RA_OF_ASC_NODE": 321.5637, "ARG_OF_PERICENTER": 297.5324, "MEAN_ANOMALY": 61.5891, "EPHEMERIS_TYPE": 0, "CLASSIFICATION_TYPE": "U", "NORAD_CAT_ID": 34997, "ELEMENT_SET_NO": 999, "REV_AT_EPOCH": 70667, "BSTAR": 0.0028258875, "MEAN_MOTION_DOT": 0.00010545, "MEAN_MOTION_DDOT": 0}, "tle": {"line1": "1 34997U 93036AFV 25341.23209318  .00010545  00000+0  28259-2 0  9998", "line2": "2 34997  73.8797 321.5637 0098092 297.5324  61.5891 14.45441909706679"}}, "geometry": {"type": "Point", "coordinates": [-36.377829786912265, 17.369316023834493]}}, {"type": "Feature", "properties": {"norad_id": 34998, "name": "COSMOS 2251 DEB", "group": "cosmos-2251-debris", "lat": -23.454426474933125, "lon": -5.649725955607815, "alt_km": 737.9550174620645, "timestamp": "2025-12-08T21:31:05.062196+00:00", "meta": {"OBJECT_NAME": "COSMOS 2251 DEB", "OBJECT_ID": "1993-036AFW", "EPOCH": "2025-12-07T23:46:10.650720", "MEAN_MOTION": 14.49249063, "ECCENTRICITY": 0.00209761, "INCLINATION": 74.0093, "RA_OF_ASC_NODE": 168.905, "ARG_OF_PERICENTER": 314.9887, "MEAN_ANOMALY": 203.6642, "EPHEMERIS_TYPE": 0, "CLASSIFICATION_TYPE": "U", "NORAD_CAT_ID": 34998, "ELEMENT_SET_NO": 999, "REV_AT_EPOCH": 87351, "BSTAR": 0.00075062665, "MEAN_MOTION_DOT": 2.843e-05, "MEAN_MOTION_DDOT": 0}, "tle": {"line1": "1 34998U 93036AFW 25341.99040105  .00002843  00000+0  75063-3 0  9997", "line2": "2 34998  74.0093 168.9050 0020976 314.9887 203.6642 14.49249063873510"}}, "geometry": {"type": "Point", "coordinates": [-5.649725955607815, -23.454426474933125]}}, {"type": "Feature", "properties": {"norad_id": 35000, "name": "COSMOS 2251 DEB", "group": "cosmos-2251-debris", "lat": 36.42851885482447, "lon": -140.9657355202709, "alt_km": 330.2691033191977, "timestamp": "2025-12-08T21:31:05.062206+00:00", "meta": {"OBJECT_NAME": "COSMOS 2251 DEB", "OBJECT_ID": "1993-036AFY", "EPOCH": "2025-12-08T01:36:00.037440", "MEAN_MOTION": 15.78894052, "ECCENTRICITY": 0.00106386, "INCLINATION": 73.9984, "RA_OF_ASC_NODE": 208.7132, "ARG_OF_PERICENTER": 176.4741, "MEAN_ANOMALY": 183.6565, "EPHEMERIS_TYPE": 0, "CLASSIFICATION_TYPE": "U", "NORAD_CAT_ID": 35000, "ELEMENT_SET_NO": 999, "REV_AT_EPOCH": 88441, "BSTAR": 0.0067629895, "MEAN_MOTION_DOT": 0.01336693, "MEAN_MOTION_DDOT": 0}, "tle": {"line1": "1 35000U 93036AFY 25342.06666710  .01336693  00000+0  67630-2 0  9991", "line2": "2 35000  73.9984 208.7132 0010638 176.4741 183.6565 15.78894052884419"}}, "geometry": {"type": "Point", "coordinates": [-140.9657355202709, 36.42851885482447]}}, {"type": "Feature", "properties": {"norad_id": 35012, "name": "COSMOS 2251 DEB", "group": "cosmos-2251-debris", "lat": -46.62255559499836, "lon": -43.43684117336317, "alt_km": 696.6207831856136, "timestamp": "2025-12-08T21:31:05.062216+00:00", "meta": {"OBJECT_NAME": "COSMOS 2251 DEB", "OBJECT_ID": "1993-036AFZ", "EPOCH": "2025-12-08T15:28:21.216000", "MEAN_MOTION": 14.45541006, "ECCENTRICITY": 0.00816708, "INCLINATION": 74.0195, "RA_OF_ASC_NODE": 119.3789, "ARG_OF_PERICENTER": 260.3937, "MEAN_ANOMALY": 98.7986, "EPHEMERIS_TYPE": 0, "CLASSIFICATION_TYPE": "U", "NORAD_CAT_ID": 35012, "ELEMENT_SET_NO": 999, "REV_AT_EPOCH": 87502, "BSTAR": 0.00034788569, "MEAN_MOTION_DOT": 1.25e-05, "MEAN_MOTION_DDOT": 0}, "tle": {"line1": "1 35012U 93036AFZ 25342.64469000  .00001250  00000+0  34789-3 0  9998", "line2": "2 35012  74.0195 119.3789 0081670 260.3937  98.7986 14.45541006875028"}}, "geometry": {"type": "Point", "coordinates": [-43.43684117336317, -46.62255559499836]}}, {"type": "Feature", "properties": {"norad_id": 35014, "name": "COSMOS 2251 DEB", "group": "cosmos-2251-debris", "lat": -66.60683883947436, "lon": 9.516659444098128, "alt_km": 649.2654977209331, "timestamp": "2025-12-08T21:31:05.062226+00:00", "meta": {"OBJECT_NAME": "COSMOS 2251 DEB", "OBJECT_ID": "1993-036AGB", "EPOCH": "2025-12-06T22:38:32.273376", "MEAN_MOTION": 14.75000144, "ECCENTRICITY": 0.00077244, "INCLINATION": 73.9998, "RA_OF_ASC_NODE": 54.8925, "ARG_OF_PERICENTER": 229.6531, "MEAN_ANOMALY": 130.3968, "EPHEMERIS_TYPE": 0, "CLASSIFICATION_TYPE": "U", "NORAD_CAT_ID": 35014, "ELEMENT_SET_NO": 999, "REV_AT_EPOCH": 71251, "BSTAR": 0.0025951547, "MEAN_MOTION_DOT": 0.00017481, "MEAN_MOTION_DDOT": 0}, "tle": {"line1": "1 35014U 93036AGB 25340.94342909  .00017481  00000+0  25952-2 0  9993", "line2": "2 35014  73.9998  54.8925 0007724 229.6531 130.3968 14.75000144712513"}}, "geometry": {"type": "Point", "coordinates": [9.516659444098128, -66.60683883947436]}}, {"type": "Feature", "properties": {"norad_id": 35015, "name": "COSMOS 2251 DEB", "group": "cosmos-2251-debris", "lat": -13.18569860119554, "lon": -121.92204333417583, "alt_km": 770.5152413718324, "timestamp": "2025-12-08T21:31:05.062237+00:00", "meta": {"OBJECT_NAME": "COSMOS 2251 DEB", "OBJECT_ID": "1993-036AGC", "EPOCH": "2025-12-08T00:05:52.237248", "MEAN_MOTION": 14.46833983, "ECCENTRICITY": 0.00741883, "INCLINATION": 73.9478, "RA_OF_ASC_NODE": 243.6217, "ARG_OF_PERICENTER": 113.7247, "MEAN_ANOMALY": 266.4905, "EPHEMERIS_TYPE": 0, "CLASSIFICATION_TYPE": "U", "NORAD_CAT_ID": 35015, "ELEMENT_SET_NO": 999, "REV_AT_EPOCH": 65372, "BSTAR": 0.0010794966, "MEAN_MOTION_DOT": 4.023e-05, "MEAN_MOTION_DDOT": 0}, "tle": {"line1": "1 35015U 93036AGC 25342.00407682  .00004023  00000+0  10795-2 0  9990", "line2": "2 35015  73.9478 243.6217 0074188 113.7247 266.4905 14.46833983653726"}}, "geometry": {"type": "Point", "coordinates": [-121.92204333417583, -13.18569860119554]}}, {"type": "Feature", "properties": {"norad_id": 35016, "name": "COSMOS 2251 DEB", "group": "cosmos-2251-debris", "lat": 8.33609038170801, "lon": 119.09434564790836, "alt_km": 721.0050203213723, "timestamp": "2025-12-08T21:31:05.062247+00:00", "meta": {"OBJECT_NAME": "COSMOS 2251 DEB", "OBJECT_ID": "1993-036AGD", "EPOCH": "2025-12-08T05:57:49.079808", "MEAN_MOTION": 14.35046759, "ECCENTRICITY": 0.01147431, "INCLINATION": 73.9297, "RA_OF_ASC_NODE": 302.7106, "ARG_OF_PERICENTER": 220.6303, "MEAN_ANOMALY": 204.6817, "EPHEMERIS_TYPE": 0, "CLASSIFICATION_TYPE": "U", "NORAD_CAT_ID": 35016, "ELEMENT_SET_NO": 999, "REV_AT_EPOCH": 86718, "BSTAR": 0.00066640016, "MEAN_MOTION_DOT": 2.018e-05, "MEAN_MOTION_DDOT": 0}, "tle": {"line1": "1 35016U 93036AGD 25342.24848472  .00002018  00000+0  66640-3 0  9996", "line2": "2 35016  73.9297 302.7106 0114743 220.6303 204.6817 14.35046759867181"}}, "geometry": {"type": "Point", "coordinates": [119.09434564790836, 8.33609038170801]}}]}